GSAT0101 (PRN E11)      
1 37846U 11060A   22334.84244047 -.00000091  00000+0  00000+0 0  9992
2 37846  57.0484  16.8190 0001639 318.4764  41.5662  1.70474796 69054
GSAT0102 (PRN E12)      
1 37847U 11060B   22335.36497817 -.00000093  00000+0  00000+0 0  9998
2 37847  57.0492  16.8045 0003642 300.9044  66.7128  1.70475183 69075
GSAT0103 (PRN E19)      
1 38857U 12055A   22334.29463906  .00000075  00000+0  00000+0 0  9997
2 38857  55.1876 137.1380 0002133 228.2133 131.7651  1.70473533 62935
GSAT0104 (PRN E20)      
1 38858U 12055B   22335.43765915  .00000076  00000+0  00000+0 0  9991
2 38858  55.1886 137.1081 0001772 148.6122 211.3965  1.70473803 62951
GSAT0201 (PRN E18)      
1 40128U 14050A   22335.29883847 -.00000088  00000+0  00000+0 0  9994
2 40128  50.1670 325.6316 1615688 130.0981 245.2527  1.85519321 54314
GSAT0202 (PRN E14)      
1 40129U 14050B   22333.94226603 -.00000077  00000+0  00000+0 0  9994
2 40129  50.1907 324.7509 1613060 130.8600 244.3136  1.85519941 56451
GSAT0203 (PRN E26)      
1 40544U 15017A   22335.20848310 -.00000093  00000+0  00000+0 0  9993
2 40544  56.8438  16.8196 0004912 250.7393 109.2621  1.70476004 47145
GSAT0204 (PRN E22)      
1 40545U 15017B   22333.70187193 -.00000089  00000+0  00000+0 0  9997
2 40545  56.8493  16.8738 0004682 237.8651 122.1457  1.70475524 10165
GSAT0205 (PRN E24)      
1 40889U 15045A   22335.22936516 -.00000036  00000+0  00000+0 0  9991
2 40889  55.5212 257.3573 0005565  11.7485 348.2839  1.70472776 44950
GSAT0206 (PRN E30)      
1 40890U 15045B   22334.86351353 -.00000034  00000+0  00000+0 0  9990
2 40890  55.5196 257.3631 0003850 358.3081   1.7115  1.70472829 44974
GSAT0209 (PRN E09)      
1 41174U 15079A   22332.69049723  .00000072  00000+0  00000+0 0  9998
2 41174  55.2039 136.8869 0001682 339.6942  20.2919  1.70474401 42677
GSAT0208 (PRN E08)      
1 41175U 15079B   22334.66975663  .00000076  00000+0  00000+0 0  9993
2 41175  55.2032 136.8311 0001042 354.0879   5.9077  1.70474330 43120
GSAT0211 (PRN E02)      
1 41549U 16030A   22333.02941356 -.00000019  00000+0  00000+0 0  9995
2 41549  55.6670 257.3642 0004726 334.5819  25.4227  1.70472872 40571
GSAT0210 (PRN E01)      
1 41550U 16030B   22335.08146322 -.00000035  00000+0  00000+0 0  9993
2 41550  55.6651 257.3091 0003553 312.5425  47.4476  1.70474232 40602
GSAT0207 (PRN E07)      
1 41859U 16069A   22333.57114480  .00000073  00000+0  00000+0 0  9990
2 41859  54.8662 137.0033 0001503 297.7065  62.2731  1.70474349 37316
GSAT0212 (PRN E03)      
1 41860U 16069B   22334.01129235  .00000074  00000+0  00000+0 0  9997
2 41860  54.8642 136.9884 0001363  31.0956 328.9082  1.70473160 37579
GSAT0213 (PRN E04)      
1 41861U 16069C   22334.96312603  .00000075  00000+0  00000+0 0  9996
2 41861  54.8661 136.9674 0001832 242.8757 117.1031  1.70473200 37454
GSAT0214 (PRN E05)      
1 41862U 16069D   22334.52372068  .00000075  00000+0  00000+0 0  9990
2 41862  54.8646 136.9741 0000978 225.9134 134.0754  1.70473171 37574
GSAT0215 (PRN E21)      
1 43055U 17079A   22335.01367016 -.00000035  00000+0  00000+0 0  9997
2 43055  55.6420 257.1396 0002950 309.3022  50.6923  1.70473553 30923
GSAT0216 (PRN E25)      
1 43056U 17079B   22335.30580224 -.00000037  00000+0  00000+0 0  9990
2 43056  55.6418 257.1314 0003929 306.2026  53.7806  1.70473632 30942
GSAT0217 (PRN E27)      
1 43057U 17079C   22334.35289263 -.00000030  00000+0  00000+0 0  9997
2 43057  55.6403 257.1571 0004456 312.9881  46.9979  1.70473635 30916
GSAT0218 (PRN E31)      
1 43058U 17079D   22333.98633754 -.00000027  00000+0  00000+0 0  9990
2 43058  55.6408 257.1646 0004900 293.5826  66.3908  1.70473666 30936
GSAT0221 (PRN E15)      
1 43564U 18060A   22334.47155451 -.00000090  00000+0  00000+0 0  9991
2 43564  57.2249  16.6975 0005627 266.4897  93.5013  1.70475926 27101
GSAT0222 (PRN E33)      
1 43565U 18060B   22335.27801074 -.00000092  00000+0  00000+0 0  9992
2 43565  57.2274  16.6763 0004578 272.1980  87.8046  1.70475914 27150
GSAT0219 (PRN E36)      
1 43566U 18060C   22333.73880084 -.00000088  00000+0  00000+0 0  9995
2 43566  57.2273  16.7200 0004193 271.3788  88.6298  1.70475884 27106
GSAT0220 (PRN E13)      
1 43567U 18060D   22334.54563512 -.00000090  00000+0  00000+0 0  9993
2 43567  57.2270  16.6980 0004052 269.8152  90.1937  1.70475573 27090
GSAT0223                
1 49809U 21116A   22333.50337486 -.00000087  00000+0  00000+0 0  9994
2 49809  57.2193  16.6239 0003338 217.6487 312.8205  1.70475798  6092
GSAT0224                
1 49810U 21116B   22332.50984897 -.00000083  00000+0  00000+0 0  9995
2 49810  57.2197  16.6490 0002650 214.7032 178.4923  1.70475797  6101
